COSMOS 2413 (712)       
1 28509U 04053B   15354.85724499  .00000112  00000-0  00000+0 0  9995
2 28509  63.1316 196.4843 0005610 159.4351 277.9524  2.13101730 85480
COSMOS 2419 (714)       
1 28915U 05050A   15355.01766976 -.00000043  00000-0  00000+0 0  9993
2 28915  65.2438  84.2163 0014258 351.4500 207.6484  2.13113098 77730
COSMOS 2425 (716)       
1 29670U 06062A   15355.40399446 -.00000043  00000-0  10000-3 0  9998
2 29670  65.7083 323.1624 0022616 338.8542 219.2249  2.13105032 69940
COSMOS 2426 (717)       
1 29671U 06062B   15354.70840941 -.00000036  00000-0  10000-3 0  9994
2 29671  65.7258 323.2632 0016064 174.4897  72.1381  2.13103147 69939
COSMOS 2424 (715)       
1 29672U 06062C   15354.66439537 -.00000036  00000-0  10000-3 0  9995
2 29672  65.7103 323.1966 0015573 173.8098 215.9024  2.13102258 69931
COSMOS 2433 (720)       
1 32275U 07052A   15354.59132816 -.00000040  00000-0  10000-3 0  9995
2 32275  65.2588  83.9982 0002787 233.7428 252.6129  2.13105057 63445
COSMOS 2432 (719)       
1 32276U 07052B   15354.54915572 -.00000040  00000-0  10000-3 0  9999
2 32276  65.2709  84.0625 0010463 336.0160  72.2372  2.13104291 63442
COSMOS 2434 (721)       
1 32393U 07065A   15354.59475942 -.00000036  00000-0  00000+0 0  9990
2 32393  65.3284 322.5973 0001360 138.6621 243.8682  2.13102896 62157
COSMOS 2436 (723)       
1 32395U 07065C   15354.61516271 -.00000037  00000-0  10000-3 0  9992
2 32395  65.3415 322.6363 0017837 345.0404 145.1243  2.13102929 62084
COSMOS 2443 (725)       
1 33379U 08046B   15354.90217292 -.00000043  00000-0  10000-3 0  9995
2 33379  65.1874  83.4220 0019291 184.3151  87.8163  2.13101560 56319
COSMOS 2456 (730)       
1 36111U 09070A   15355.06205810  .00000108  00000-0  00000+0 0  9997
2 36111  64.1864 202.2029 0003722 344.1474 205.5280  2.13103074 46824
COSMOS 2457 (733)       
1 36112U 09070B   15355.11796610  .00000108  00000-0  00000+0 0  9997
2 36112  64.1683 202.1325 0007203 148.4644 215.2159  2.13101742 46838
COSMOS 2458 (734)       
1 36113U 09070C   15355.32466465  .00000109  00000-0  10000-3 0  9999
2 36113  64.1739 202.1294 0002774  55.4539 154.0105  2.13102026 46831
COSMOS 2459 (731)       
1 36400U 10007A   15355.47007641 -.00000046  00000-0  10000-3 0  9994
2 36400  65.1665  83.1418 0027089 353.2448 314.2190  2.13102376 45187
COSMOS 2461 (735)       
1 36401U 10007B   15355.17014688 -.00000045  00000-0  10000-3 0  9990
2 36401  65.1594  83.1350 0005938  86.1524 261.7683  2.13102313 45173
COSMOS 2460 (732)       
1 36402U 10007C   15355.08358587 -.00000044  00000-0  10000-3 0  9999
2 36402  65.1495  83.1173 0001398 172.6429 151.0148  2.13102026 45176
COSMOS 2466 (738)       
1 37137U 10041A   15354.56447307 -.00000037  00000-0  10000-3 0  9996
2 37137  64.9122 322.7925 0019125 160.5868  62.3373  2.13102435 41245
COSMOS 2465 (737)       
1 37138U 10041B   15355.04376358 -.00000042  00000-0  00000+0 0  9999
2 37138  64.9287 322.8457 0033902 172.6380 240.4777  2.13102810 41256
COSMOS 2464 (736)       
1 37139U 10041C   15355.42999183 -.00000046  00000-0  00000+0 0  9993
2 37139  64.9311 322.8245 0021741   6.7494 117.2445  2.13102900 41265
COSMOS 2471 (701K)      
1 37372U 11009A   15355.14810829 -.00000044  00000-0  00000+0 0  9993
2 37372  65.1470  83.0650 0008371 228.3702 276.7664  2.13103018 37458
COSMOS 2474 (742)       
1 37829U 11055A   15355.24035634  .00000109  00000-0  00000+0 0  9996
2 37829  64.5100 202.5355 0005966 250.8199 297.8429  2.13102008 32822
COSMOS 2476 (744)       
1 37867U 11064A   15354.44568575  .00000105  00000-0  00000+0 0  9990
2 37867  64.4903 202.6480 0014737 246.6133  98.1571  2.13102115 32156
COSMOS 2477 (745)       
1 37868U 11064B   15354.38545016  .00000104  00000-0  00000+0 0  9998
2 37868  64.4989 202.6885 0012812 247.8288 230.1468  2.13102027 32117
COSMOS 2475 (743)       
1 37869U 11064C   15354.45921977  .00000105  00000-0  00000+0 0  9992
2 37869  64.5065 202.6721 0018582 278.8789 211.7297  2.13102297 32128
COSMOS 2478 (746)       
1 37938U 11071A   15355.32659650 -.00000045  00000-0  00000+0 0  9994
2 37938  65.1735  83.2747 0014164 237.9895 166.2222  2.13088378 31756
COSMOS 2485 (747)       
1 39155U 13019A   15354.44337541  .00000105  00000-0  00000+0 0  9991
2 39155  64.6599 202.5589 0015066 240.2007 148.0012  2.13102207 20633
COSMOS 2492 (754)       
1 39620U 14012A   15354.52758324 -.00000040  00000-0  10000-3 0  9991
2 39620  65.0373  83.1502 0014408 330.5698 154.8505  2.13103429 13586
COSMOS 2500 (755)       
1 40001U 14032A   15355.43110308 -.00000046  00000-0  00000+0 0  9994
2 40001  64.9786  83.1568 0007342 200.1207 122.5266  2.13103015 11817
COSMOS 2501 (702K)      
1 40315U 14075A   15354.64262509 -.00000037  00000-0  00000+0 0  9992
2 40315  64.6995 324.3645 0018821 240.3018 359.6248  2.13101603  8203
